ORBCOMM FM24            
1 25478U 98053D   24181.92897699  .00002476  00000+0  89445-3 0  9997
2 25478  45.0069 136.6442 0002598 297.9076  62.1508 14.35881904346774
ORBCOMM FM25            
1 25479U 98053E   24181.82641147  .00002801  00000+0  10060-2 0  9990
2 25479  45.0061 135.3775 0005157 294.0568  65.9739 14.35863851347050
ORBCOMM FM26            
1 25480U 98053F   24181.57454492  .00002017  00000+0  74645-3 0  9998
2 25480  45.0069 130.9028 0007328 306.1930  53.8239 14.35278340346954
ORBCOMM FM27            
1 25481U 98053G   24181.60626214  .00002717  00000+0  97744-3 0  9998
2 25481  45.0044 136.6795 0001723 331.9435  28.1320 14.35850779346959
ORBCOMM FM28            
1 25482U 98053H   24181.92561164  .00002300  00000+0  82807-3 0  9998
2 25482  45.0062  73.4722 0004432 339.3864  20.6804 14.36274369347676
ORBCOMM FM30            
1 25980U 99065A   24181.81017060  .00001879  00000+0  69704-3 0  9995
2 25980  45.0334 315.3707 0004545  45.8046 314.3174 14.35419736283780
ORBCOMM FM31            
1 25981U 99065B   24181.77583001  .00001832  00000+0  68109-3 0  9991
2 25981  45.0246 309.1900 0002057  90.4372 269.6712 14.35413176284304
ORBCOMM FM32            
1 25982U 99065C   24181.79241447  .00001935  00000+0  73068-3 0  9993
2 25982  45.0177 323.2737 0004503  81.7065 278.4292 14.34417529283960
