<?xml version="1.0" encoding="UTF-8"?>
<ndm xmlns:xsi="http://www.w3.org/2001/XMLSchema-instance" xsi:noNamespaceSchemaLocation="https://sanaregistry.org/r/ndmxml_unqualified/ndmxml-2.0.0-master-2.0.xsd">
<omm id="CCSDS_OMM_VERS" version="2.0">
<header><CREATION_DATE/><ORIGINATOR/></header><body><segment><metadata><OBJECT_NAME>ORBCOMM FM24</OBJECT_NAME><OBJECT_ID>1998-053D</OBJECT_ID><CENTER_NAME>EARTH</CENTER_NAME><REF_FRAME>TEME</REF_FRAME><TIME_SYSTEM>UTC</TIME_SYSTEM><MEAN_ELEMENT_THEORY>SGP4</MEAN_ELEMENT_THEORY></metadata><data><meanElements><EPOCH>2024-06-29T22:17:43.611936</EPOCH><MEAN_MOTION>14.35881904</MEAN_MOTION><ECCENTRICITY>.0002598</ECCENTRICITY><INCLINATION>45.0069</INCLINATION><RA_OF_ASC_NODE>136.6442</RA_OF_ASC_NODE><ARG_OF_PERICENTER>297.9076</ARG_OF_PERICENTER><MEAN_ANOMALY>62.1508</MEAN_ANOMALY></meanElements><tleParameters><EPHEMERIS_TYPE>0</EPHEMERIS_TYPE><CLASSIFICATION_TYPE>U</CLASSIFICATION_TYPE><NORAD_CAT_ID>25478</NORAD_CAT_ID><ELEMENT_SET_NO>999</ELEMENT_SET_NO><REV_AT_EPOCH>34677</REV_AT_EPOCH><BSTAR>.89445E-3</BSTAR><MEAN_MOTION_DOT>.2476E-4</MEAN_MOTION_DOT><MEAN_MOTION_DDOT>0</MEAN_MOTION_DDOT></tleParameters></data></segment></body></omm>
<omm id="CCSDS_OMM_VERS" version="2.0">
<header><CREATION_DATE/><ORIGINATOR/></header><body><segment><metadata><OBJECT_NAME>ORBCOMM FM25</OBJECT_NAME><OBJECT_ID>1998-053E</OBJECT_ID><CENTER_NAME>EARTH</CENTER_NAME><REF_FRAME>TEME</REF_FRAME><TIME_SYSTEM>UTC</TIME_SYSTEM><MEAN_ELEMENT_THEORY>SGP4</MEAN_ELEMENT_THEORY></metadata><data><meanElements><EPOCH>2024-06-29T19:50:01.951008</EPOCH><MEAN_MOTION>14.35863851</MEAN_MOTION><ECCENTRICITY>.0005157</ECCENTRICITY><INCLINATION>45.0061</INCLINATION><RA_OF_ASC_NODE>135.3775</RA_OF_ASC_NODE><ARG_OF_PERICENTER>294.0568</ARG_OF_PERICENTER><MEAN_ANOMALY>65.9739</MEAN_ANOMALY></meanElements><tleParameters><EPHEMERIS_TYPE>0</EPHEMERIS_TYPE><CLASSIFICATION_TYPE>U</CLASSIFICATION_TYPE><NORAD_CAT_ID>25479</NORAD_CAT_ID><ELEMENT_SET_NO>999</ELEMENT_SET_NO><REV_AT_EPOCH>34705</REV_AT_EPOCH><BSTAR>.1006E-2</BSTAR><MEAN_MOTION_DOT>.2801E-4</MEAN_MOTION_DOT><MEAN_MOTION_DDOT>0</MEAN_MOTION_DDOT></tleParameters></data></segment></body></omm>
<omm id="CCSDS_OMM_VERS" version="2.0">
<header><CREATION_DATE/><ORIGINATOR/></header><body><segment><metadata><OBJECT_NAME>ORBCOMM FM26</OBJECT_NAME><OBJECT_ID>1998-053F</OBJECT_ID><CENTER_NAME>EARTH</CENTER_NAME><REF_FRAME>TEME</REF_FRAME><TIME_SYSTEM>UTC</TIME_SYSTEM><MEAN_ELEMENT_THEORY>SGP4</MEAN_ELEMENT_THEORY></metadata><data><meanElements><EPOCH>2024-06-29T13:47:20.681088</EPOCH><MEAN_MOTION>14.35278340</MEAN_MOTION><ECCENTRICITY>.0007328</ECCENTRICITY><INCLINATION>45.0069</INCLINATION><RA_OF_ASC_NODE>130.9028</RA_OF_ASC_NODE><ARG_OF_PERICENTER>306.1930</ARG_OF_PERICENTER><MEAN_ANOMALY>53.8239</MEAN_ANOMALY></meanElements><tleParameters><EPHEMERIS_TYPE>0</EPHEMERIS_TYPE><CLASSIFICATION_TYPE>U</CLASSIFICATION_TYPE><NORAD_CAT_ID>25480</NORAD_CAT_ID><ELEMENT_SET_NO>999</ELEMENT_SET_NO><REV_AT_EPOCH>34695</REV_AT_EPOCH><BSTAR>.74645E-3</BSTAR><MEAN_MOTION_DOT>.2017E-4</MEAN_MOTION_DOT><MEAN_MOTION_DDOT>0</MEAN_MOTION_DDOT></tleParameters></data></segment></body></omm>
<omm id="CCSDS_OMM_VERS" version="2.0">
<header><CREATION_DATE/><ORIGINATOR/></header><body><segment><metadata><OBJECT_NAME>ORBCOMM FM27</OBJECT_NAME><OBJECT_ID>1998-053G</OBJECT_ID><CENTER_NAME>EARTH</CENTER_NAME><REF_FRAME>TEME</REF_FRAME><TIME_SYSTEM>UTC</TIME_SYSTEM><MEAN_ELEMENT_THEORY>SGP4</MEAN_ELEMENT_THEORY></metadata><data><meanElements><EPOCH>2024-06-29T14:33:01.048896</EPOCH><MEAN_MOTION>14.35850779</MEAN_MOTION><ECCENTRICITY>.0001723</ECCENTRICITY><INCLINATION>45.0044</INCLINATION><RA_OF_ASC_NODE>136.6795</RA_OF_ASC_NODE><ARG_OF_PERICENTER>331.9435</ARG_OF_PERICENTER><MEAN_ANOMALY>28.1320</MEAN_ANOMALY></meanElements><tleParameters><EPHEMERIS_TYPE>0</EPHEMERIS_TYPE><CLASSIFICATION_TYPE>U</CLASSIFICATION_TYPE><NORAD_CAT_ID>25481</NORAD_CAT_ID><ELEMENT_SET_NO>999</ELEMENT_SET_NO><REV_AT_EPOCH>34695</REV_AT_EPOCH><BSTAR>.97744E-3</BSTAR><MEAN_MOTION_DOT>.2717E-4</MEAN_MOTION_DOT><MEAN_MOTION_DDOT>0</MEAN_MOTION_DDOT></tleParameters></data></segment></body></omm>
<omm id="CCSDS_OMM_VERS" version="2.0">
<header><CREATION_DATE/><ORIGINATOR/></header><body><segment><metadata><OBJECT_NAME>ORBCOMM FM28</OBJECT_NAME><OBJECT_ID>1998-053H</OBJECT_ID><CENTER_NAME>EARTH</CENTER_NAME><REF_FRAME>TEME</REF_FRAME><TIME_SYSTEM>UTC</TIME_SYSTEM><MEAN_ELEMENT_THEORY>SGP4</MEAN_ELEMENT_THEORY></metadata><data><meanElements><EPOCH>2024-06-29T22:12:52.845696</EPOCH><MEAN_MOTION>14.36274369</MEAN_MOTION><ECCENTRICITY>.0004432</ECCENTRICITY><INCLINATION>45.0062</INCLINATION><RA_OF_ASC_NODE>73.4722</RA_OF_ASC_NODE><ARG_OF_PERICENTER>339.3864</ARG_OF_PERICENTER><MEAN_ANOMALY>20.6804</MEAN_ANOMALY></meanElements><tleParameters><EPHEMERIS_TYPE>0</EPHEMERIS_TYPE><CLASSIFICATION_TYPE>U</CLASSIFICATION_TYPE><NORAD_CAT_ID>25482</NORAD_CAT_ID><ELEMENT_SET_NO>999</ELEMENT_SET_NO><REV_AT_EPOCH>34767</REV_AT_EPOCH><BSTAR>.82807E-3</BSTAR><MEAN_MOTION_DOT>.23E-4</MEAN_MOTION_DOT><MEAN_MOTION_DDOT>0</MEAN_MOTION_DDOT></tleParameters></data></segment></body></omm>
<omm id="CCSDS_OMM_VERS" version="2.0">
<header><CREATION_DATE/><ORIGINATOR/></header><body><segment><metadata><OBJECT_NAME>ORBCOMM FM30</OBJECT_NAME><OBJECT_ID>1999-065A</OBJECT_ID><CENTER_NAME>EARTH</CENTER_NAME><REF_FRAME>TEME</REF_FRAME><TIME_SYSTEM>UTC</TIME_SYSTEM><MEAN_ELEMENT_THEORY>SGP4</MEAN_ELEMENT_THEORY></metadata><data><meanElements><EPOCH>2024-06-29T19:26:38.739840</EPOCH><MEAN_MOTION>14.35419736</MEAN_MOTION><ECCENTRICITY>.0004545</ECCENTRICITY><INCLINATION>45.0334</INCLINATION><RA_OF_ASC_NODE>315.3707</RA_OF_ASC_NODE><ARG_OF_PERICENTER>45.8046</ARG_OF_PERICENTER><MEAN_ANOMALY>314.3174</MEAN_ANOMALY></meanElements><tleParameters><EPHEMERIS_TYPE>0</EPHEMERIS_TYPE><CLASSIFICATION_TYPE>U</CLASSIFICATION_TYPE><NORAD_CAT_ID>25980</NORAD_CAT_ID><ELEMENT_SET_NO>999</ELEMENT_SET_NO><REV_AT_EPOCH>28378</REV_AT_EPOCH><BSTAR>.69704E-3</BSTAR><MEAN_MOTION_DOT>.1879E-4</MEAN_MOTION_DOT><MEAN_MOTION_DDOT>0</MEAN_MOTION_DDOT></tleParameters></data></segment></body></omm>
<omm id="CCSDS_OMM_VERS" version="2.0">
<header><CREATION_DATE/><ORIGINATOR/></header><body><segment><metadata><OBJECT_NAME>ORBCOMM FM31</OBJECT_NAME><OBJECT_ID>1999-065B</OBJECT_ID><CENTER_NAME>EARTH</CENTER_NAME><REF_FRAME>TEME</REF_FRAME><TIME_SYSTEM>UTC</TIME_SYSTEM><MEAN_ELEMENT_THEORY>SGP4</MEAN_ELEMENT_THEORY></metadata><data><meanElements><EPOCH>2024-06-29T18:37:11.712864</EPOCH><MEAN_MOTION>14.35413176</MEAN_MOTION><ECCENTRICITY>.0002057</ECCENTRICITY><INCLINATION>45.0246</INCLINATION><RA_OF_ASC_NODE>309.1900</RA_OF_ASC_NODE><ARG_OF_PERICENTER>90.4372</ARG_OF_PERICENTER><MEAN_ANOMALY>269.6712</MEAN_ANOMALY></meanElements><tleParameters><EPHEMERIS_TYPE>0</EPHEMERIS_TYPE><CLASSIFICATION_TYPE>U</CLASSIFICATION_TYPE><NORAD_CAT_ID>25981</NORAD_CAT_ID><ELEMENT_SET_NO>999</ELEMENT_SET_NO><REV_AT_EPOCH>28430</REV_AT_EPOCH><BSTAR>.68109E-3</BSTAR><MEAN_MOTION_DOT>.1832E-4</MEAN_MOTION_DOT><MEAN_MOTION_DDOT>0</MEAN_MOTION_DDOT></tleParameters></data></segment></body></omm>
<omm id="CCSDS_OMM_VERS" version="2.0">
<header><CREATION_DATE/><ORIGINATOR/></header><body><segment><metadata><OBJECT_NAME>ORBCOMM FM32</OBJECT_NAME><OBJECT_ID>1999-065C</OBJECT_ID><CENTER_NAME>EARTH</CENTER_NAME><REF_FRAME>TEME</REF_FRAME><TIME_SYSTEM>UTC</TIME_SYSTEM><MEAN_ELEMENT_THEORY>SGP4</MEAN_ELEMENT_THEORY></metadata><data><meanElements><EPOCH>2024-06-29T19:01:04.610208</EPOCH><MEAN_MOTION>14.34417529</MEAN_MOTION><ECCENTRICITY>.0004503</ECCENTRICITY><INCLINATION>45.0177</INCLINATION><RA_OF_ASC_NODE>323.2737</RA_OF_ASC_NODE><ARG_OF_PERICENTER>81.7065</ARG_OF_PERICENTER><MEAN_ANOMALY>278.4292</MEAN_ANOMALY></meanElements><tleParameters><EPHEMERIS_TYPE>0</EPHEMERIS_TYPE><CLASSIFICATION_TYPE>U</CLASSIFICATION_TYPE><NORAD_CAT_ID>25982</NORAD_CAT_ID><ELEMENT_SET_NO>999</ELEMENT_SET_NO><REV_AT_EPOCH>28396</REV_AT_EPOCH><BSTAR>.73068E-3</BSTAR><MEAN_MOTION_DOT>.1935E-4</MEAN_MOTION_DOT><MEAN_MOTION_DDOT>0</MEAN_MOTION_DDOT></tleParameters></data></segment></body></omm>

</ndm>
